ONEWEB-0661             
1 55821U 23029AB  23300.89145222  .00038519  00000+0  10297+0 0  9991
2 55821  87.8951 121.4910 0002367  84.3130 275.8270 13.14805212 32830
ONEWEB-0662             
1 55822U 23029AC  23300.92558660 -.00000131  00000+0 -38807-3 0  9992
2 55822  87.8949 121.4921 0001751  67.8819 292.2496 13.14504799 32880
ONEWEB-0663             
1 55823U 23029AD  23299.66667824 -.00033055  00000+0 -66974-1 0  9999
2 55823  87.9637 106.4777 0001210  56.6510  98.5415 13.33954508 34497
ONEWEB-0664             
1 55824U 23029AE  23299.66667824 -.00032476  00000+0 -65885-1 0  9996
2 55824  87.9610 106.4943 0001575  53.4151 357.9259 13.33865859  5434
ONEWEB-0665             
1 55825U 23029AF  23300.88753056  .00000198  00000+0  49859-3 0  9996
2 55825  87.8950 121.4670 0001797  72.7990 287.3336 13.14505312 32858
ONEWEB-0666             
1 55826U 23029AG  23299.66667824 -.00031830  00000+0 -64383-1 0  9993
2 55826  87.9671 106.4767 0000828  61.8251 244.0969 13.34058644 34490
ONEWEB-0667             
1 55827U 23029AH  23299.66667824  .00000013  00000+0  00000+0 0  9995
2 55827  87.9429 106.4118 0001976  59.4934 143.2487 13.35558594  5457
ONEWEB-0669             
1 55828U 23029AJ  23299.66667824 -.00036877  00000+0 -74924-1 0  9993
2 55828  87.9670 106.4477 0001553  16.2989 229.8138 13.33798221  5495
